STARLINK-6258           
1 56413U 23061AR  25323.58894497  .00000329  00000+0  39438-4 0  9994
2 56413  43.0043  62.6353 0001466 265.4754  94.5921 15.02532094140343
STARLINK-5136           
1 56414U 23061AS  25324.57280545 -.00001362  00000+0 -85825-4 0  9999
2 56414  43.0061  57.1141 0000939 280.0015  80.0721 15.02523160140493
STARLINK-6260           
1 56416U 23061AU  25324.62299680 -.00000132  00000+0  53247-5 0  9994
2 56416  43.0048  44.4885 0001114 268.4863  91.5851 15.02534966140645
STARLINK-6261           
1 56417U 23061AV  25325.10572230  .00000789  00000+0  73477-4 0  9997
2 56417  43.0050  54.2363 0001448 287.2341  72.8343 15.02536791140577
STARLINK-5356           
1 56418U 23061AW  25323.61250484  .00000540  00000+0  55037-4 0  9993
2 56418  43.0026  49.8047 0001133 276.2397  83.8316 15.02537902140498
STARLINK-5350           
1 56419U 23061AX  25324.57057235  .00000763  00000+0  71567-4 0  9992
2 56419  43.0077  57.1002 0001333 278.3849  81.6843 15.02535620140491
STARLINK-6272           
1 56420U 23061AY  25324.53987339  .00000736  00000+0  69542-4 0  9997
2 56420  43.0071  44.7210 0001383 281.1650  78.9036 15.02532137140636
STARLINK-6270           
1 56421U 23061AZ  25324.49336727  .00000488  00000+0  51165-4 0  9998
2 56421  43.0037  45.2304 0001015 276.5863  83.4863 15.02537938140627
STARLINK-6236           
1 56422U 23061BA  25324.59969366 -.00000140  00000+0  46909-5 0  9998
2 56422  43.0065  44.3125 0000974 283.2933  76.7801 15.02544011140645
STARLINK-6239           
1 56423U 23061BB  25324.20415009  .00000949  00000+0  85335-4 0  9998
2 56423  43.0038  46.5030 0001325 276.9688  83.1004 15.02534777140580
STARLINK-6242           
1 56424U 23061BC  25324.59302918  .00000065  00000+0  19850-4 0  9993
2 56424  43.0035  44.2603 0001127 264.5701  95.5013 15.02531772140644
STARLINK-6224           
1 56425U 23061BD  25324.52989672 -.00000280  00000+0 -56266-5 0  9999
2 56425  43.0050  44.6439 0001360 272.6568  87.4119 15.02525963140634
STARLINK-5352           
1 56426U 23061BE  25324.24077441  .00000442  00000+0  47795-4 0  9995
2 56426  43.0070  46.7596 0001687 264.5080  95.5570 15.02534802140582
STARLINK-5724           
1 56427U 23061BF  25324.49669678 -.00000296  00000+0 -68726-5 0  9999
2 56427  43.0058  45.2447 0001315 267.7505  92.3187 15.02536126140628
STARLINK-6238           
1 56428U 23061BG  25324.58636569  .00000808  00000+0  74898-4 0  9996
2 56428  43.0048  44.2086 0001115 271.5720  88.4995 15.02536538140648
STARLINK-6264           
1 56429U 23061BH  25324.58303667 -.00000069  00000+0  99352-5 0  9990
2 56429  43.0054  44.1812 0001392 271.9053  88.1629 15.02538247140642
STARLINK-5990           
1 56448U 23064A   25324.66621376  .00001589  00000+0  14089-3 0  9992
2 56448  70.0005  59.4170 0003096 267.9793  92.1012 14.98341724138918
