[{"OBJECT_NAME":"STARLINK-6258","OBJECT_ID":"2023-061AR","EPOCH":"2025-11-19T14:08:04.845408","MEAN_MOTION":15.02532094,"ECCENTRICITY":0.0001466,"INCLINATION":43.0043,"RA_OF_ASC_NODE":62.6353,"ARG_OF_PERICENTER":265.4754,"MEAN_ANOMALY":94.5921,"EPHEMERIS_TYPE":0,"CLASSIFICATION_TYPE":"U","NORAD_CAT_ID":56413,"ELEMENT_SET_NO":999,"REV_AT_EPOCH":14034,"BSTAR":3.9438e-5,"MEAN_MOTION_DOT":3.29e-6,"MEAN_MOTION_DDOT":0},{"OBJECT_NAME":"STARLINK-5136","OBJECT_ID":"2023-061AS","EPOCH":"2025-11-20T13:44:50.390880","MEAN_MOTION":15.0252316,"ECCENTRICITY":9.395e-5,"INCLINATION":43.0061,"RA_OF_ASC_NODE":57.1141,"ARG_OF_PERICENTER":280.0015,"MEAN_ANOMALY":80.0721,"EPHEMERIS_TYPE":0,"CLASSIFICATION_TYPE":"U","NORAD_CAT_ID":56414,"ELEMENT_SET_NO":999,"REV_AT_EPOCH":14049,"BSTAR":-8.582481e-5,"MEAN_MOTION_DOT":-1.362e-5,"MEAN_MOTION_DDOT":0},{"OBJECT_NAME":"STARLINK-6260","OBJECT_ID":"2023-061AU","EPOCH":"2025-11-20T14:57:06.923520","MEAN_MOTION":15.02534966,"ECCENTRICITY":0.00011141,"INCLINATION":43.0048,"RA_OF_ASC_NODE":44.4885,"ARG_OF_PERICENTER":268.4863,"MEAN_ANOMALY":91.5851,"EPHEMERIS_TYPE":0,"CLASSIFICATION_TYPE":"U","NORAD_CAT_ID":56416,"ELEMENT_SET_NO":999,"REV_AT_EPOCH":14064,"BSTAR":5.324706e-6,"MEAN_MOTION_DOT":-1.32e-6,"MEAN_MOTION_DDOT":0},{"OBJECT_NAME":"STARLINK-6261","OBJECT_ID":"2023-061AV","EPOCH":"2025-11-21T02:32:14.406720","MEAN_MOTION":15.02536791,"ECCENTRICITY":0.0001448,"INCLINATION":43.005,"RA_OF_ASC_NODE":54.2363,"ARG_OF_PERICENTER":287.2341,"MEAN_ANOMALY":72.8343,"EPHEMERIS_TYPE":0,"CLASSIFICATION_TYPE":"U","NORAD_CAT_ID":56417,"ELEMENT_SET_NO":999,"REV_AT_EPOCH":14057,"BSTAR":7.3477e-5,"MEAN_MOTION_DOT":7.89e-6,"MEAN_MOTION_DDOT":0},{"OBJECT_NAME":"STARLINK-5356","OBJECT_ID":"2023-061AW","EPOCH":"2025-11-19T14:42:00.418176","MEAN_MOTION":15.02537902,"ECCENTRICITY":0.0001133,"INCLINATION":43.0026,"RA_OF_ASC_NODE":49.8047,"ARG_OF_PERICENTER":276.2397,"MEAN_ANOMALY":83.8316,"EPHEMERIS_TYPE":0,"CLASSIFICATION_TYPE":"U","NORAD_CAT_ID":56418,"ELEMENT_SET_NO":999,"REV_AT_EPOCH":14049,"BSTAR":5.5037e-5,"MEAN_MOTION_DOT":5.4e-6,"MEAN_MOTION_DDOT":0},{"OBJECT_NAME":"STARLINK-5350","OBJECT_ID":"2023-061AX","EPOCH":"2025-11-20T13:41:37.451040","MEAN_MOTION":15.0253562,"ECCENTRICITY":0.0001333,"INCLINATION":43.0077,"RA_OF_ASC_NODE":57.1002,"ARG_OF_PERICENTER":278.3849,"MEAN_ANOMALY":81.6843,"EPHEMERIS_TYPE":0,"CLASSIFICATION_TYPE":"U","NORAD_CAT_ID":56419,"ELEMENT_SET_NO":999,"REV_AT_EPOCH":14049,"BSTAR":7.1567366e-5,"MEAN_MOTION_DOT":7.63e-6,"MEAN_MOTION_DDOT":0},{"OBJECT_NAME":"STARLINK-6272","OBJECT_ID":"2023-061AY","EPOCH":"2025-11-20T12:57:25.060896","MEAN_MOTION":15.02532137,"ECCENTRICITY":0.00013835,"INCLINATION":43.0071,"RA_OF_ASC_NODE":44.721,"ARG_OF_PERICENTER":281.165,"MEAN_ANOMALY":78.9036,"EPHEMERIS_TYPE":0,"CLASSIFICATION_TYPE":"U","NORAD_CAT_ID":56420,"ELEMENT_SET_NO":999,"REV_AT_EPOCH":14063,"BSTAR":6.9542263e-5,"MEAN_MOTION_DOT":7.36e-6,"MEAN_MOTION_DDOT":0},{"OBJECT_NAME":"STARLINK-6270","OBJECT_ID":"2023-061AZ","EPOCH":"2025-11-20T11:50:26.932128","MEAN_MOTION":15.02537938,"ECCENTRICITY":0.00010152,"INCLINATION":43.0037,"RA_OF_ASC_NODE":45.2304,"ARG_OF_PERICENTER":276.5863,"MEAN_ANOMALY":83.4863,"EPHEMERIS_TYPE":0,"CLASSIFICATION_TYPE":"U","NORAD_CAT_ID":56421,"ELEMENT_SET_NO":999,"REV_AT_EPOCH":14062,"BSTAR":5.1164889e-5,"MEAN_MOTION_DOT":4.88e-6,"MEAN_MOTION_DDOT":0},{"OBJECT_NAME":"STARLINK-6236","OBJECT_ID":"2023-061BA","EPOCH":"2025-11-20T14:23:33.532224","MEAN_MOTION":15.02544011,"ECCENTRICITY":9.742e-5,"INCLINATION":43.0065,"RA_OF_ASC_NODE":44.3125,"ARG_OF_PERICENTER":283.2933,"MEAN_ANOMALY":76.7801,"EPHEMERIS_TYPE":0,"CLASSIFICATION_TYPE":"U","NORAD_CAT_ID":56422,"ELEMENT_SET_NO":999,"REV_AT_EPOCH":14064,"BSTAR":4.690901e-6,"MEAN_MOTION_DOT":-1.4e-6,"MEAN_MOTION_DDOT":0},{"OBJECT_NAME":"STARLINK-6239","OBJECT_ID":"2023-061BB","EPOCH":"2025-11-20T04:53:58.567776","MEAN_MOTION":15.02534777,"ECCENTRICITY":0.0001325,"INCLINATION":43.0038,"RA_OF_ASC_NODE":46.503,"ARG_OF_PERICENTER":276.9688,"MEAN_ANOMALY":83.1004,"EPHEMERIS_TYPE":0,"CLASSIFICATION_TYPE":"U","NORAD_CAT_ID":56423,"ELEMENT_SET_NO":999,"REV_AT_EPOCH":14058,"BSTAR":8.5335e-5,"MEAN_MOTION_DOT":9.49e-6,"MEAN_MOTION_DDOT":0},{"OBJECT_NAME":"STARLINK-6242","OBJECT_ID":"2023-061BC","EPOCH":"2025-11-20T14:13:57.721152","MEAN_MOTION":15.02531772,"ECCENTRICITY":0.00011273,"INCLINATION":43.0035,"RA_OF_ASC_NODE":44.2603,"ARG_OF_PERICENTER":264.5701,"MEAN_ANOMALY":95.5013,"EPHEMERIS_TYPE":0,"CLASSIFICATION_TYPE":"U","NORAD_CAT_ID":56424,"ELEMENT_SET_NO":999,"REV_AT_EPOCH":14064,"BSTAR":1.9849614e-5,"MEAN_MOTION_DOT":6.5e-7,"MEAN_MOTION_DDOT":0},{"OBJECT_NAME":"STARLINK-6224","OBJECT_ID":"2023-061BD","EPOCH":"2025-11-20T12:43:03.076608","MEAN_MOTION":15.02525963,"ECCENTRICITY":0.00013608,"INCLINATION":43.005,"RA_OF_ASC_NODE":44.6439,"ARG_OF_PERICENTER":272.6568,"MEAN_ANOMALY":87.4119,"EPHEMERIS_TYPE":0,"CLASSIFICATION_TYPE":"U","NORAD_CAT_ID":56425,"ELEMENT_SET_NO":999,"REV_AT_EPOCH":14063,"BSTAR":-5.62658e-6,"MEAN_MOTION_DOT":-2.8e-6,"MEAN_MOTION_DDOT":0},{"OBJECT_NAME":"STARLINK-5352","OBJECT_ID":"2023-061BE","EPOCH":"2025-11-20T05:46:42.909024","MEAN_MOTION":15.02534802,"ECCENTRICITY":0.00016873,"INCLINATION":43.007,"RA_OF_ASC_NODE":46.7596,"ARG_OF_PERICENTER":264.508,"MEAN_ANOMALY":95.557,"EPHEMERIS_TYPE":0,"CLASSIFICATION_TYPE":"U","NORAD_CAT_ID":56426,"ELEMENT_SET_NO":999,"REV_AT_EPOCH":14058,"BSTAR":4.7794579e-5,"MEAN_MOTION_DOT":4.42e-6,"MEAN_MOTION_DDOT":0},{"OBJECT_NAME":"STARLINK-5724","OBJECT_ID":"2023-061BF","EPOCH":"2025-11-20T11:55:14.601792","MEAN_MOTION":15.02536126,"ECCENTRICITY":0.00013156,"INCLINATION":43.0058,"RA_OF_ASC_NODE":45.2447,"ARG_OF_PERICENTER":267.7505,"MEAN_ANOMALY":92.3187,"EPHEMERIS_TYPE":0,"CLASSIFICATION_TYPE":"U","NORAD_CAT_ID":56427,"ELEMENT_SET_NO":999,"REV_AT_EPOCH":14062,"BSTAR":-6.872555e-6,"MEAN_MOTION_DOT":-2.96e-6,"MEAN_MOTION_DDOT":0},{"OBJECT_NAME":"STARLINK-6238","OBJECT_ID":"2023-061BG","EPOCH":"2025-11-20T14:04:21.995616","MEAN_MOTION":15.02536538,"ECCENTRICITY":0.00011151,"INCLINATION":43.0048,"RA_OF_ASC_NODE":44.2086,"ARG_OF_PERICENTER":271.572,"MEAN_ANOMALY":88.4995,"EPHEMERIS_TYPE":0,"CLASSIFICATION_TYPE":"U","NORAD_CAT_ID":56428,"ELEMENT_SET_NO":999,"REV_AT_EPOCH":14064,"BSTAR":7.4897893e-5,"MEAN_MOTION_DOT":8.08e-6,"MEAN_MOTION_DDOT":0},{"OBJECT_NAME":"STARLINK-6264","OBJECT_ID":"2023-061BH","EPOCH":"2025-11-20T13:59:34.368288","MEAN_MOTION":15.02538247,"ECCENTRICITY":0.00013928,"INCLINATION":43.0054,"RA_OF_ASC_NODE":44.1812,"ARG_OF_PERICENTER":271.9053,"MEAN_ANOMALY":88.1629,"EPHEMERIS_TYPE":0,"CLASSIFICATION_TYPE":"U","NORAD_CAT_ID":56429,"ELEMENT_SET_NO":999,"REV_AT_EPOCH":14064,"BSTAR":9.935216e-6,"MEAN_MOTION_DOT":-6.9e-7,"MEAN_MOTION_DDOT":0},{"OBJECT_NAME":"STARLINK-5990","OBJECT_ID":"2023-064A","EPOCH":"2025-11-20T15:59:20.868864","MEAN_MOTION":14.98341724,"ECCENTRICITY":0.00030969,"INCLINATION":70.0005,"RA_OF_ASC_NODE":59.417,"ARG_OF_PERICENTER":267.9793,"MEAN_ANOMALY":92.1012,"EPHEMERIS_TYPE":0,"CLASSIFICATION_TYPE":"U","NORAD_CAT_ID":56448,"ELEMENT_SET_NO":999,"REV_AT_EPOCH":13891,"BSTAR":0.00014088844,"MEAN_MOTION_DOT":1.589e-5,"MEAN_MOTION_DDOT":0}]
